{
    "links": {
        "self": "http://www.neowsapp.com/rest/v1/neo/3471972?api_key=iIulBulltgU6a56xZRHN4H3l9WmuAYTsLGpBGhQ2"
    },
    "id": "3471972",
    "neo_reference_id": "3471972",
    "name": "(2009 UJ5)",
    "designation": "2009 UJ5",
    "nasa_jpl_url": "http://ssd.jpl.nasa.gov/sbdb.cgi?sstr=3471972",
    "absolute_magnitude_h": 25.3,
    "estimated_diameter": {
        "kilometers": {
            "estimated_diameter_min": 0.0231502122,
            "estimated_diameter_max": 0.0517654482
        },
        "meters": {
            "estimated_diameter_min": 23.150212221,
            "estimated_diameter_max": 51.7654482198
        },
        "miles": {
            "estimated_diameter_min": 0.0143848705,
            "estimated_diameter_max": 0.0321655483
        },
        "feet": {
            "estimated_diameter_min": 75.9521422633,
            "estimated_diameter_max": 169.8341531374
        }
    },
    "is_potentially_hazardous_asteroid": false,
    "close_approach_data": [
        {
            "close_approach_date": "2009-10-19",
            "close_approach_date_full": "2009-Oct-19 02:19",
            "epoch_date_close_approach": 1255918740000,
            "relative_velocity": {
                "kilometers_per_second": "9.310593692",
                "kilometers_per_hour": "33518.1372911955",
                "miles_per_hour": "20826.867029632"
            },
            "miss_distance": {
                "astronomical": "0.0165433629",
                "lunar": "6.4353681681",
                "kilometers": "2474851.852477023",
                "miles": "1537801.6323199974"
            },
            "orbiting_body": "Earth"
        }
    ],
    "orbital_data": {
        "orbit_id": "11",
        "orbit_determination_date": "2017-04-06 08:59:29",
        "first_observation_date": "2009-10-20",
        "last_observation_date": "2009-11-01",
        "data_arc_in_days": 12,
        "observations_used": 41,
        "orbit_uncertainty": "7",
        "minimum_orbit_intersection": ".0153215",
        "jupiter_tisserand_invariant": "3.245",
        "epoch_osculation": "2459000.5",
        "eccentricity": ".585973238837983",
        "semi_major_axis": "2.418961507702451",
        "inclination": "8.056232803109003",
        "ascending_node_longitude": "27.8986376484398",
        "orbital_period": "1374.174430457746",
        "perihelion_distance": "1.001514798409635",
        "perihelion_argument": "345.387305693757",
        "aphelion_distance": "3.836408216995266",
        "perihelion_time": "2459236.004632204956",
        "mean_anomaly": "298.3035619680808",
        "mean_motion": ".2619754756170815",
        "equinox": "J2000",
        "orbit_class": {
            "orbit_class_type": "APO",
            "orbit_class_description": "Near-Earth asteroid orbits which cross the Earth’s orbit similar to that of 1862 Apollo",
            "orbit_class_range": "a (semi-major axis) > 1.0 AU; q (perihelion) < 1.017 AU"
        }
    },
    "is_sentry_object": false
}